OBJECT_NAME,OBJECT_ID,EPOCH,MEAN_MOTION,ECCENTRICITY,INCLINATION,RA_OF_ASC_NODE,ARG_OF_PERICENTER,MEAN_ANOMALY,EPHEMERIS_TYPE,CLASSIFICATION_TYPE,NORAD_CAT_ID,ELEMENT_SET_NO,REV_AT_EPOCH,BSTAR,MEAN_MOTION_DOT,MEAN_MOTION_DDOT
ALPHASAT,2013-038A,2026-07-02T14:06:04.111776,1.00270383,.00022382,2.9985,1.2144,114.4017,41.4116,0,U,39215,999,4417,0,.144E-5,0
INSAT-3D,2013-038B,2026-07-02T11:10:34.519584,1.00268930,.00010666,1.9634,82.3615,13.6592,121.6225,0,U,39216,999,4723,0,-.33E-5,0
WGS F6 (USA 244),2013-041A,2026-07-02T13:20:22.238880,1.00272740,.00015399,0.0185,22.9305,195.7383,126.8401,0,U,39222,999,4621,0,.99E-6,0
ES'HAIL 1,2013-044A,2026-07-02T14:06:11.600064,1.00270498,.00025629,0.0482,347.1369,110.9527,59.5808,0,U,39233,999,4678,0,.154E-5,0
GSAT-7,2013-044B,2026-07-02T14:20:03.164640,1.00271852,.00026715,0.1192,90.8572,182.6995,296.0441,0,U,39234,999,4541,0,-.66E-6,0
AMOS-4,2013-045A,2026-07-02T13:05:31.104096,1.00271832,.00022163,0.0152,62.9183,11.6215,107.4165,0,U,39237,999,4711,0,.18E-6,0
AEHF-3 (USA 246),2013-050A,2026-07-02T11:25:38.719776,1.00267919,.0088279,5.3307,67.0448,187.6876,73.0147,0,U,39256,999,4580,0,.37E-6,0
ASTRA 2E,2013-056A,2026-07-02T14:06:56.528064,1.00274985,.00026925,0.0755,314.7227,163.8381,42.2991,0,U,39285,999,4657,0,.161E-5,0
FM-6,2013-058A,2026-07-02T13:25:44.224032,1.00271407,.00019399,0.0187,48.4119,131.6012,185.7008,0,U,39360,999,4622,0,-.5E-7,0
RADUGA-1M 3,2013-062A,2026-07-02T07:18:14.315904,1.00273638,.00019026,5.9940,72.1641,283.1334,69.5963,0,U,39375,999,4625,0,.16E-5,0
SES-8,2013-071A,2026-07-02T14:31:22.513152,1.00272865,.00030372,0.0427,267.1896,192.1484,134.1498,0,U,39460,999,4458,0,-.259E-5,0
INMARSAT 5-F1,2013-073A,2026-07-02T10:51:25.891200,1.00271505,.00006497,0.0183,26.2668,331.5886,148.1307,0,U,39476,999,4573,0,.38E-6,0
TKSAT-1 (TUPAC KATARI),2013-075A,2026-07-02T13:34:05.922912,1.00270967,.00027726,0.0399,137.2319,317.6489,302.0567,0,U,39481,999,4575,0,-.184E-5,0
EXPRESS-AM5,2013-077A,2026-06-30T14:44:31.293312,1.00272075,.00004235,0.0162,324.4037,92.6173,222.8274,0,U,39487,999,4649,0,-.269E-5,0
GSAT-14,2014-001A,2026-07-02T04:04:00.628608,1.00271275,.0001135,0.0418,243.5340,318.1943,213.4758,0,U,39498,999,4552,0,-.66E-6,0
THAICOM 6,2014-002A,2026-07-02T14:21:18.045792,1.00270923,.00047411,0.0601,109.2670,7.9224,97.2873,0,U,39500,999,4561,0,-.11E-5,0
TDRS 12,2014-004A,2026-07-02T10:21:53.682912,1.00277877,.00035409,3.9914,19.3283,201.9560,173.6483,0,U,39504,999,4443,0,-.261E-5,0
ABS-2,2014-006A,2026-07-02T14:20:18.141216,1.00271951,.00038526,0.0223,67.3600,18.6144,124.6532,0,U,39508,999,4543,0,-.75E-6,0
ATHENA-FIDUS,2014-006B,2026-07-02T05:36:27.816192,1.00272512,.00016652,0.0275,93.6298,17.7432,290.8134,0,U,39509,999,4523,0,.165E-5,0
TURKSAT 4A,2014-007A,2026-07-02T05:37:27.719904,1.00273514,.00006816,0.0875,280.9229,327.8800,157.8479,0,U,39522,999,4511,0,.157E-5,0
EXPRESS-AT1,2014-010A,2026-07-02T15:48:15.460992,1.00307932,.00045484,0.2962,85.5028,45.3750,91.1105,0,U,39612,999,4497,0,.17E-6,0
EXPRESS-AT2,2014-010B,2026-07-02T14:14:55.762080,1.00270375,.00003512,0.0189,20.3775,68.8550,101.1273,0,U,39613,999,4465,0,0,0
AMAZONAS 4A,2014-011A,2026-07-02T13:37:50.563776,1.00269578,.00049461,0.0701,211.0525,277.8907,282.1090,0,U,39616,999,4486,0,-.242E-5,0
ASTRA 5B,2014-011B,2026-07-02T14:05:41.647776,1.00274557,.00022194,0.0777,302.3795,164.6740,48.5086,0,U,39617,999,4482,0,.148E-5,0
IRNSS-1B,2014-017A,2026-07-01T17:42:45.150912,1.00271492,.00228668,28.8995,240.1518,193.7568,166.6239,0,U,39635,999,4494,0,.145E-5,0
LUCH-5V,2014-023A,2026-07-02T16:19:31.353600,1.00269979,.00026391,5.1693,69.5920,56.6541,134.0924,0,U,39727,999,4451,0,-.26E-5,0
KAZSAT-3,2014-023B,2026-07-02T14:04:38.096256,1.00274092,.00003306,0.0109,7.7567,160.7930,21.7241,0,U,39728,999,4261,0,.71E-6,0
EUTELSAT 3B,2014-030A,2026-07-02T08:51:53.006400,1.00271889,.00042169,0.0603,5.7224,93.1737,317.5684,0,U,39773,999,4421,0,.3E-6,0
ASIASAT 8 (AMOS-7),2014-046A,2026-07-02T14:35:22.967808,1.00274692,.00017558,0.0379,271.2314,177.6751,155.8758,0,U,40107,999,10230,0,-.322E-5,0
ASIASAT 6,2014-052A,2026-07-01T01:03:38.650176,1.00273234,.0000956,0.0366,269.1164,215.6310,290.1820,0,U,40141,999,4321,0,-.351E-5,0
OPTUS 10,2014-054A,2026-07-02T13:01:38.629344,1.00270861,.00021059,0.0657,279.2105,181.1804,171.6121,0,U,40146,999,4318,0,-.136E-5,0
MEASAT-3B,2014-054B,2026-07-02T15:41:30.515424,1.00271329,.00025455,0.0241,12.3361,72.4610,162.7624,0,U,40147,999,4306,0,-.231E-5,0
HIMAWARI-8,2014-060A,2026-07-02T14:59:23.850240,1.00271951,.00010513,0.0168,8.1221,99.1161,178.9511,0,U,40267,999,4291,0,-.265E-5,0
IRNSS-1C,2014-061A,2026-07-02T10:59:11.403168,1.00274356,.00220982,6.5556,88.6400,4.1351,75.4832,0,U,40269,999,4284,0,-.155E-5,0
INTELSAT 30 (IS-30),2014-062A,2026-07-02T06:41:10.368672,1.00271490,.00013653,0.0230,52.7224,350.4301,242.4035,0,U,40271,999,694,0,-.14E-5,0
ARSAT 1,2014-062B,2026-07-02T15:43:36.200640,1.00270091,.00019991,0.0392,290.9521,168.7347,345.0962,0,U,40272,999,4278,0,-.249E-5,0
EUTELSAT 53A,2014-064A,2026-07-01T05:43:37.042752,1.00271894,.0001288,0.0161,304.0538,241.6748,232.4716,0,U,40277,999,4170,0,.108E-5,0
GSAT-16,2014-078A,2026-07-02T10:49:18.594624,1.00272103,.00078747,0.0482,262.3007,185.9085,49.7018,0,U,40332,999,4226,0,.95E-6,0
DIRECTV 14,2014-078B,2026-07-02T10:05:17.774304,1.00271936,.00002932,0.0102,26.2148,2.4668,303.8682,0,U,40333,999,4219,0,-.115E-5,0
YAMAL 401,2014-082A,2026-07-02T16:16:01.706592,1.00270418,.00005171,0.0144,40.2473,42.4162,172.0036,0,U,40345,999,4207,0,0,0
ASTRA 2G,2014-089A,2026-07-02T14:06:56.528064,1.00270148,.00049702,0.0462,350.4028,82.6836,87.4806,0,U,40364,999,4212,0,.16E-5,0
FENGYUN 2G,2014-090A,2026-07-02T14:27:17.470656,1.00266746,.00036057,5.6761,72.6337,150.3436,14.0509,0,U,40367,999,4215,0,-.293E-5,0
MUOS-3,2015-002A,2026-07-02T08:46:31.021248,1.00270527,.00527644,4.5494,43.5854,177.6663,175.3007,0,U,40374,999,4173,0,-.12E-5,0
INMARSAT 5-F2,2015-005A,2026-07-02T10:17:54.064608,1.00275452,.00006215,0.0184,20.4389,74.6010,284.8989,0,U,40384,999,4114,0,-.275E-5,0
ABS-3A,2015-010A,2026-07-02T13:57:56.136672,1.00268326,.00016681,0.0416,61.6576,347.5320,77.9347,0,U,40424,999,4153,0,0,0
EUTELSAT 115 WEST B,2015-010B,2026-07-02T13:26:06.688032,1.00274878,.00001535,0.0065,197.5655,54.4366,115.2121,0,U,40425,999,4153,0,-.15E-6,0
EXPRESS-AM7,2015-012A,2026-07-02T07:19:36.685344,1.00271910,.00031797,0.0181,34.3920,72.8266,323.0126,0,U,40505,999,4115,0,.161E-5,0
BEIDOU-3S IGSO-1S,2015-019A,2026-07-01T18:51:56.955168,1.00248803,.00392789,49.1677,295.2866,192.1614,165.4543,0,U,40549,999,4121,0,-.144E-5,0
THOR 7,2015-022A,2026-07-02T07:08:07.785312,1.00273501,.00025642,0.0464,215.4828,242.1224,289.1179,0,U,40613,999,4096,0,.3E-7,0
TURKMENALEM52E/MONACOSAT,2015-023A,2026-07-02T14:13:48.370080,1.00271882,.00029322,0.0354,79.7624,14.7454,91.5829,0,U,40617,999,4100,0,.114E-5,0
DIRECTV 15,2015-026A,2026-07-02T09:13:38.786016,1.00269097,.00005025,0.0164,65.5164,342.1104,268.3228,0,U,40663,999,4061,0,-.91E-6,0
SKY MEXICO-1,2015-026B,2026-07-02T06:45:47.426688,1.00270354,.00026506,0.0183,34.3039,85.6844,182.9749,0,U,40664,999,4060,0,-.224E-5,0
METEOSAT-11 (MSG-4),2015-034A,2026-07-02T14:01:34.542912,1.00267904,.00022387,3.2390,71.0141,349.0052,80.3207,0,U,40732,999,737,0,.71E-6,0
STAR ONE C4,2015-034B,2026-07-01T11:59:08.988576,1.00269317,.00020315,0.0209,356.1227,82.6474,310.5523,0,U,40733,999,4015,0,-.254E-5,0
WGS F7 (USA 263),2015-036A,2026-07-02T12:53:38.919264,1.00272955,.00007785,0.0426,62.6594,134.4358,91.8758,0,U,40746,999,4002,0,0,0
INTELSAT 34 (IS-34),2015-039A,2026-07-02T13:42:57.573216,1.00269667,.00004688,0.0108,13.9056,22.0921,34.8455,0,U,40874,999,3978,0,-.275E-5,0
EUTELSAT 8 WEST B,2015-039B,2026-07-02T13:56:41.257248,1.00272142,.00037461,0.0639,346.1172,109.8392,25.8321,0,U,40875,999,3981,0,-.55E-6,0
GSAT-6,2015-041A,2026-07-02T13:50:20.992704,1.00269932,.00031044,1.9581,82.4030,10.8899,117.4061,0,U,40880,999,3975,0,-.15E-5,0
INMARSAT 5-F3,2015-042A,2026-07-02T13:07:30.971136,1.00270188,.00006008,0.0186,29.1483,107.6201,160.2855,0,U,40882,999,3972,0,.61E-6,0
MUOS-4,2015-044A,2026-07-02T14:20:25.628640,1.00272170,.00573803,4.3569,42.3239,3.2909,165.1161,0,U,40887,999,3971,0,-.84E-6,0
TJS-1,2015-046A,2026-07-02T13:01:38.629344,1.00269887,.00058301,0.3608,84.8708,9.6450,176.4761,0,U,40892,999,3972,0,-.146E-5,0
EXPRESS-AM8,2015-048A,2026-07-01T10:32:24.620640,1.00272118,.00003674,0.0215,295.4343,105.0275,23.1281,0,U,40895,999,3948,0,-.101E-5,0
BEIDOU-3S IGSO-2S,2015-053A,2026-06-30T16:52:41.290752,1.00257046,.00656789,49.1997,258.6211,193.2539,174.4507,0,U,40938,999,3949,0,-.93E-6,0
SKY MUSTER 1 (NBN1A),2015-054A,2026-07-02T06:05:35.280384,1.00268987,.00019398,0.0207,4.7622,92.7616,54.4070,0,U,40940,999,3941,0,0,0
ARSAT 2,2015-054B,2026-07-02T13:35:50.754624,1.00270617,.0002148,0.0327,295.0447,159.7913,308.7263,0,U,40941,999,3945,0,-.214E-5,0
MORELOS 3,2015-056A,2026-07-02T13:26:44.127744,1.00270741,.00004589,3.1996,15.4715,22.7791,330.9333,0,U,40946,999,3943,0,-.33E-6,0
APSTAR-9,2015-059A,2026-07-02T14:39:02.001312,1.00271881,.00029472,0.0209,331.2809,207.4021,103.7411,0,U,40982,999,3927,0,-.255E-5,0
TURKSAT 4B,2015-060A,2026-07-02T14:13:10.928640,1.00276849,.00022651,0.0251,287.7152,170.0059,86.1990,0,U,40984,999,3925,0,.125E-5,0
ZHONGXING-2C,2015-063A,2026-07-02T14:28:24.862656,1.00271776,.00078252,0.3122,89.1205,95.4494,56.6345,0,U,41021,999,3913,0,-.313E-5,0
GSAT-15,2015-065A,2026-07-02T13:57:00.341280,1.00270195,.00044355,0.0421,251.3821,190.0586,141.9209,0,U,41028,999,3895,0,-.247E-5,0
BADR-7 (ARABSAT-6B),2015-065B,2026-07-02T14:06:19.088352,1.00269018,.00041462,0.0511,219.6300,339.2666,319.3188,0,U,41029,999,3892,0,.155E-5,0
LAOSAT 1,2015-067A,2026-07-02T11:29:04.130592,1.00268498,.00023795,0.0110,247.9878,168.2671,165.0036,0,U,41034,999,3901,0,-.333E-5,0
